GLOBALSTAR M023         
1 25621U 99004A   25354.86829663 -.00000062  00000+0  23002-3 0  9993
2 25621  52.0080 204.9893 0009883 174.4673 199.0183 12.62510894239315
GLOBALSTAR M040         
1 25622U 99004B   25354.91578171 -.00000064  00000+0  22328-3 0  9997
2 25622  51.9893 209.2741 0002009  79.8615 293.3087 12.62025486238838
GLOBALSTAR M036         
1 25623U 99004C   25354.06048808 -.00000126  00000+0 -62414-3 0  9993
2 25623  51.9964 110.3893 0010840  50.4818 120.5297 11.86617741201043
GLOBALSTAR M038         
1 25624U 99004D   25354.94430480 -.00000058  00000+0  30764-3 0  9998
2 25624  51.9970 253.7288 0002735  75.2362   5.3529 12.32537620225407
GLOBALSTAR M022         
1 25649U 99012A   25354.60396881 -.00000120  00000+0 -39497-3 0  9996
2 25649  52.0020 144.1310 0003135 159.8966 279.2519 12.02508321198802
GLOBALSTAR M041         
1 25650U 99012B   25354.81659868 -.00000092  00000+0 -85135-4 0  9997
2 25650  52.0041  30.6943 0000900 338.1527  21.9271 11.96681207200628
GLOBALSTAR M046         
1 25651U 99012C   25354.98610436 -.00000164  00000+0 -82567-3 0  9999
2 25651  52.0058  86.4076 0001493 249.5916 281.9671 12.09415350206265
GLOBALSTAR M037         
1 25652U 99012D   25354.73142493 -.00000094  00000+0  52817-4 0  9993
2 25652  52.0025 335.9543 0001674 241.5590 289.5505 12.62458518234838
